HELIOS 1B               
1 25977U 99064A   26068.71385249  .00002181  00000+0  24578-3 0  9999
2 25977  98.1691 330.9581 0002452  75.0933 285.0554 14.87699059685269
TERRA                   
1 25994U 99068A   26068.85179322  .00000564  00000+0  12411-3 0  9996
2 25994  97.9593 122.2803 0002714 150.9384 267.9776 14.61014936395102
SL-16 R/B               
1 26070U 00006B   26068.51791186 -.00000089  00000+0 -20683-4 0  9992
2 26070  71.0010  98.1989 0016793 190.4760 169.6016 14.15825785348531
TITAN 4B R/B            
1 26474U 00047B   26068.82906950  .00005597  00000+0  34987-3 0  9994
2 26474  67.9901  40.1183 0038619  35.2415 325.1276 15.09564407392934
ENVISAT                 
1 27386U 02009A   26068.89108324  .00000182  00000+0  72747-4 0  9995
2 27386  98.3728  22.4836 0001301  82.8070 343.1988 14.39037082259201
IDEFIX & ARIANE 42P R/B 
1 27422U 02021B   26068.77554362  .00000383  00000+0  16192-3 0  9998
2 27422  98.5868   7.3808 0011576 182.0346 178.0792 14.31026352244037
AQUA                    
1 27424U 02022A   26068.88830181  .00001388  00000+0  28685-3 0  9995
2 27424  98.4175  36.2568 0000561  81.0346 331.7718 14.61977745268769
CZ-4B R/B               
1 27432U 02024C   26068.72875843  .00000036  00000+0  41658-4 0  9998
2 27432  98.8839 122.1353 0050481  24.1066  86.7627 14.14547560229241
MIDORI II (ADEOS-II)    
1 27597U 02056A   26068.87371145  .00000417  00000+0  18155-3 0  9995
2 27597  98.7769  27.3525 0001570  42.2245 317.9057 14.29285373210328
H-2A R/B                
1 27601U 02056E   26068.84545525  .00000342  00000+0  13433-3 0  9994
2 27601  98.3202  29.2051 0070520 160.2100 253.4350 14.33760820214132
CZ-4B R/B               
1 28059U 03049C   26068.86489523  .00000488  00000+0  12359-3 0  9999
2 28059  98.6880  63.7765 0047264 230.3613 129.3408 14.55020381186629
CZ-2C R/B               
1 28222U 04012C   26068.73706385  .00054864  00000+0  56669-3 0  9995
2 28222  97.7227 134.0339 0012922 309.1452  50.8657 15.64506189204287
SL-16 R/B               
1 28353U 04021B   26068.88128525 -.00000243  00000+0 -10191-3 0  9994
2 28353  70.9995 232.0903 0004065   8.9977 351.1217 14.14597913122869
CZ-4B R/B               
1 28415U 04035C   26068.64746184  .00009257  00000+0  32600-3 0  9990
2 28415  97.3501 102.8902 0031016 331.7135  28.2420 15.29063015179909
CZ-2C R/B               
1 28480U 04046B   26068.76604830  .00000161  00000+0  74431-4 0  9992
2 28480  98.1983 343.7453 0139886 154.2177 206.6065 14.26992119108517
ARIANE 5 R/B            
1 28499U 04049H   26068.43055997  .00000991  00000+0  11561-3 0  9998
2 28499  98.2627 236.8779 0083955 352.7695   7.2301 14.85265161145751
CZ-2D R/B               
1 28738U 05024B   26068.58111096  .00044846  00000+0  55121-3 0  9994
2 28738  97.3602  83.7230 0005871  46.8038 313.3708 15.60135028139762
